QIANFAN-25              
1 61558U 24185G   25220.59662132  .00000295  00000+0  17267-3 0  9991
2 61558  88.9773  92.4860 0007070 359.3852   0.7321 14.05756392 51783
QIANFAN-26              
1 61559U 24185H   25220.59756329  .00000208  00000+0  19504-3 0  9994
2 61559  88.9788  93.3833 0007387  45.1383 315.0382 13.77723043 51302
QIANFAN-27              
1 61560U 24185J   25220.61832579  .00000387  00000+0  15256-3 0  9999
2 61560  88.9778  91.7494 0008213   0.4262 359.6937 14.27127921 52172
QIANFAN-28              
1 61561U 24185K   25220.58561808  .00000592  00000+0  23430-3 0  9991
2 61561  88.9795  91.7471 0007311   3.3067 356.8174 14.27691060 52172
QIANFAN-29              
1 61562U 24185L   25220.60745731  .00000168  00000+0  24078-3 0  9992
2 61562  88.9784  94.3605 0012020  59.9648 300.2694 13.50957387 50769
QIANFAN-30              
1 61563U 24185M   25220.63502277  .00000142  00000+0  20421-3 0  9992
2 61563  88.9788  93.8359 0009249  48.4569 311.7373 13.49929257 51055
QIANFAN-31              
1 61564U 24185N   25220.60654193  .00000125  00000+0  15618-3 0  9998
2 61564  88.9771  93.8406 0008914  47.1945 312.9958 13.57906065 51045
QIANFAN-32              
1 61565U 24185P   25220.59940430  .00000077  00000+0  10112-3 0  9999
2 61565  88.9832  93.9356 0011462  68.8769 291.3606 13.50683863 51013
